[{"OBJECT_NAME":"TIANQI-6","OBJECT_ID":"2020-076D","EPOCH":"2026-03-09T22:50:24.728640","MEAN_MOTION":15.06417552,"ECCENTRICITY":0.00106023,"INCLINATION":34.9994,"RA_OF_ASC_NODE":297.1791,"ARG_OF_PERICENTER":9.4595,"MEAN_ANOMALY":350.6312,"EPHEMERIS_TYPE":0,"CLASSIFICATION_TYPE":"U","NORAD_CAT_ID":46810,"ELEMENT_SET_NO":999,"REV_AT_EPOCH":29360,"BSTAR":0.00037023286,"MEAN_MOTION_DOT":5.552e-5,"MEAN_MOTION_DDOT":0},{"OBJECT_NAME":"STARLINK-4439","OBJECT_ID":"2022-099AK","EPOCH":"2026-03-09T22:22:49.209600","MEAN_MOTION":15.05646138,"ECCENTRICITY":9.779e-5,"INCLINATION":97.6028,"RA_OF_ASC_NODE":191.4074,"ARG_OF_PERICENTER":97.2398,"MEAN_ANOMALY":262.894,"EPHEMERIS_TYPE":0,"CLASSIFICATION_TYPE":"U","NORAD_CAT_ID":53498,"ELEMENT_SET_NO":999,"REV_AT_EPOCH":19608,"BSTAR":2.6099669e-5,"MEAN_MOTION_DOT":3.16e-6,"MEAN_MOTION_DDOT":0}]
